{
  "norad_id": 61978,
  "name": "STARLINK-32606",
  "history": [
    {
      "epoch": "2026-03-28T15:49:37.724160",
      "apogee_km": 484.35822003981684,
      "perigee_km": 481.5904477277272,
      "latitude_deg": -29.596892784087643,
      "longitude_deg": 81.10858240001835,
      "semi_major_axis_km": 6861.111333883771,
      "eccentricity": 0.0002017,
      "inclination_deg": 42.9992,
      "raan_deg": 72.471,
      "arg_perigee_deg": 263.4707,
      "mean_anomaly_deg": 96.5915,
      "mean_motion_rev_day": 15.27604968
    }
  ]
}